     2.100          NAVIGATION                              RINEX VERSION / TYPE
fic2rin                                 06/15/2010 00:11:01 PGM / RUN BY / DATE
                                                            END OF HEADER
22 10  6 14 13 59 44.0  .169743783772D-03 -.795807864051D-12  .000000000000D+00
     .300000000000D+01  .247187500000D+02  .499199365086D-08 -.244882132081D+01
     .122375786304D-05  .534734793473D-02  .112000852823D-04  .515371801376D+04
     .136784000000D+06  .577419996262D-07  .678412664553D-01  .186264514923D-08
     .935193799101D+00  .147562500000D+03 -.194553307711D+01 -.801676250177D-08
    -.463233581252D-09  .100000000000D+01  .158800000000D+04  .000000000000D+00
     .240000000000D+01  .000000000000D+00 -.176951289177D-07  .300000000000D+01
     .129606000000D+06  .400000000000D+01
23 10  6 14 13 59 44.0  .367030035704D-03 -.147792889038D-11  .000000000000D+00
     .300000000000D+01  .140843750000D+03  .441268380599D-08  .212331691772D+01
     .750087201595D-05  .676386267878D-02  .623986124992D-05  .515368679237D+04
     .136784000000D+06 -.931322574615D-08  .109624937190D+01  .201165676117D-06
     .967772885248D+00  .265656250000D+03  .302414552035D+01 -.810498046211D-08
     .145363197818D-09  .100000000000D+01  .158800000000D+04  .000000000000D+00
     .240000000000D+01  .000000000000D+00 -.200234353542D-07  .300000000000D+01
     .129606000000D+06  .400000000000D+01
 1 10  6 14 14  0  0.0 -.130620785058D-03 -.397903932026D-11  .000000000000D+00
     .500000000000D+01 -.141718750000D+03  .398338020949D-08 -.246953406692D+01
    -.732578337193D-05  .480011885520D-02  .880286097527D-05  .515479995155D+04
     .136800000000D+06 -.651925802231D-07 -.310501467502D+01 -.372529029846D-07
     .965357919101D+00  .213250000000D+03  .872756778783D+00 -.767710549654D-08
    -.657170230921D-10  .100000000000D+01  .158800000000D+04  .000000000000D+00
     .240000000000D+01  .630000000000D+02 -.190921127796D-07  .500000000000D+01
     .129606000000D+06  .400000000000D+01
 3 10  6 14 14  0  0.0  .568248331547D-03  .500222085975D-11  .000000000000D+00
     .154000000000D+03 -.868750000000D+01  .502949521295D-08  .204046476882D+01
    -.512227416039D-06  .131790081505D-01  .101476907730D-04  .515371775246D+04
     .136800000000D+06 -.119209289551D-06 -.217510918141D+01 -.346451997757D-06
     .927144788719D+00  .167000000000D+03  .999338116501D+00 -.814391065514D-08
     .693600319809D-09  .100000000000D+01  .158800000000D+04  .000000000000D+00
     .240000000000D+01  .000000000000D+00 -.465661287308D-08  .154000000000D+03
     .129606000000D+06  .400000000000D+01
 4 10  6 14 14  0  0.0  .103728845716D-03  .807176547823D-11  .000000000000D+00
     .650000000000D+02 -.903125000000D+01  .548022827350D-08 -.107460584855D+01
    -.275671482086D-06  .907673861366D-02  .484474003315D-05  .515369026375D+04
     .136800000000D+06  .199303030968D-06 -.100413665311D+01  .204890966415D-07
     .938630885630D+00  .266562500000D+03  .609618336228D+00 -.843928010132D-08
    -.442875590403D-10  .100000000000D+01  .158800000000D+04  .000000000000D+00
     .240000000000D+01  .000000000000D+00 -.605359673500D-08  .650000000000D+02
     .129606000000D+06  .400000000000D+01
 5 10  6 14 14  0  0.0 -.727176666260D-05 -.216004991671D-11  .000000000000D+00
     .660000000000D+02  .432812500000D+02  .451447376024D-08 -.255950597333D+01
     .210292637348D-05  .181026780047D-02  .114552676678D-04  .515372506714D+04
     .136800000000D+06 -.242143869400D-07  .376350890240D-01 -.117346644402D-06
     .958519657757D+00  .159718750000D+03  .275174577646D+00 -.779496754883D-08
    -.553237330270D-09  .100000000000D+01  .158800000000D+04  .000000000000D+00
     .240000000000D+01  .000000000000D+00 -.884756445885D-08  .660000000000D+02
     .129606000000D+06  .400000000000D+01
 6 10  6 14 14  0  0.0  .608069356531D-03 -.127329258248D-10  .000000000000D+00
     .210000000000D+02  .646875000000D+01  .491877631535D-08 -.203016051515D+01
     .594183802605D-06  .630535522941D-02  .971741974354D-05  .515366176796D+04
     .136800000000D+06 -.931322574615D-08 -.210433682985D+01  .875443220139D-07
     .934406844264D+00  .179156250000D+03 -.104260190718D+01 -.811605235187D-08
     .715744099329D-09  .100000000000D+01  .158800000000D+04  .000000000000D+00
     .240000000000D+01  .000000000000D+00 -.512227416039D-08  .210000000000D+02
     .129606000000D+06  .400000000000D+01
 7 10  6 14 14  0  0.0 -.121397897601D-05 -.227373675443D-12  .000000000000D+00
     .740000000000D+02 -.480312500000D+02  .456340436982D-08  .536941952896D+00
    -.267662107944D-05  .360269006342D-02 -.149011611938D-07  .515370963287D+04
     .136800000000D+06  .465661287308D-07  .213898212101D+01 -.391155481339D-07
     .971672733727D+00  .380656250000D+03  .303129482295D+01 -.846713840459D-08
    -.286083345091D-09  .100000000000D+01  .158800000000D+04  .000000000000D+00
     .240000000000D+01  .000000000000D+00 -.102445483208D-07  .740000000000D+02
     .129606000000D+06  .400000000000D+01
 8 10  6 14 14  0  0.0  .575371086597D-05  .113686837722D-12  .000000000000D+00
     .150000000000D+02 -.578750000000D+02  .410267089271D-08 -.104827728324D+00
    -.325776636600D-05  .111167905852D-01  .972300767899D-06  .515368315506D+04
     .136800000000D+06  .117346644402D-06  .220728303047D+01 -.502914190292D-07
     .993098247168D+00  .375031250000D+03  .310243609758D+01 -.833391856973D-08
    -.306441335940D-09  .100000000000D+01  .158800000000D+04  .000000000000D+00
     .240000000000D+01  .000000000000D+00 -.372529029846D-08  .150000000000D+02
     .129606000000D+06  .400000000000D+01
 9 10  6 14 14  0  0.0  .125113874674D-04  .227373675443D-11  .000000000000D+00
     .930000000000D+02 -.238437500000D+02  .450161608181D-08 -.219925581903D+00
    -.110268592834D-05  .171234857989D-01  .447034835815D-06  .515370850563D+04
     .136800000000D+06 -.257045030594D-06  .210789856870D+01  .931322574615D-07
     .980741428731D+00  .380656250000D+03  .152276857265D+01 -.872322050001D-08
    -.127505311108D-09  .100000000000D+01  .158800000000D+04  .000000000000D+00
     .240000000000D+01  .000000000000D+00 -.558793544769D-08  .930000000000D+02
     .129606000000D+06  .400000000000D+01
10 10  6 14 14  0  0.0 -.445954501629D-04 -.795807864051D-12  .000000000000D+00
     .630000000000D+02  .457500000000D+02  .457983362560D-08 -.248034961046D+01
     .206381082535D-05  .916792964563D-02  .114906579256D-04  .515352089500D+04
     .136800000000D+06  .162050127983D-06  .632869289089D-01 -.227242708206D-06
     .953543484856D+00  .153312500000D+03  .667917431316D+00 -.779389607563D-08
    -.448232956416D-09  .100000000000D+01  .158800000000D+04  .000000000000D+00
     .240000000000D+01  .000000000000D+00 -.279396772385D-08  .630000000000D+02
     .129606000000D+06  .400000000000D+01
11 10  6 14 14  0  0.0 -.689900480211D-04 -.250111042988D-11  .000000000000D+00
     .119000000000D+03  .130000000000D+02  .679171147347D-08  .400445186115D+00
     .659376382828D-06  .106874642661D-01  .430271029472D-05  .515373644638D+04
     .136800000000D+06 -.521540641785D-07 -.124155829637D+01  .141561031342D-06
     .887917516711D+00  .258656250000D+03  .808724250268D+00 -.930395897581D-08
     .103932900651D-09  .100000000000D+01  .158800000000D+04  .000000000000D+00
     .240000000000D+01  .000000000000D+00 -.116415321827D-07  .119000000000D+03
     .129606000000D+06  .400000000000D+01
12 10  6 14 14  0  0.0 -.104242935777D-03  .409272615798D-11  .000000000000D+00
     .190000000000D+02 -.149093750000D+03  .398516599816D-08  .475419358782D+00
    -.785477459431D-05  .351703423075D-02  .921078026295D-05  .515368399811D+04
     .136800000000D+06  .931322574615D-07 -.309054691261D+01 -.931322574615D-08
     .971440428187D+00  .207093750000D+03 -.411039170711D+00 -.787961393183D-08
    -.174650132022D-09  .100000000000D+01  .158800000000D+04  .000000000000D+00
     .240000000000D+01  .000000000000D+00 -.116415321827D-07  .190000000000D+02
     .129606000000D+06  .400000000000D+01
13 10  6 14 14  0  0.0  .303273554891D-03 -.454747350886D-12  .000000000000D+00
     .136000000000D+03  .140218750000D+03  .389766235328D-08  .297712149770D+01
     .747106969357D-05  .450394279324D-02  .523030757904D-05  .515375032806D+04
     .136800000000D+06  .139698386192D-06  .115744755954D+01  .242143869400D-07
     .992663794146D+00  .294937500000D+03  .174078806592D+01 -.782425448303D-08
     .196079596074D-09  .100000000000D+01  .158800000000D+04  .000000000000D+00
     .240000000000D+01  .000000000000D+00 -.107102096081D-07  .136000000000D+03
     .129606000000D+06  .400000000000D+01
14 10  6 14 14  0  0.0  .569499097764D-04  .420641299570D-11  .000000000000D+00
     .350000000000D+02  .135062500000D+03  .395552190622D-08  .285731404269D+01
     .699236989021D-05  .512328604236D-02  .647455453873D-05  .515375136375D+04
     .136800000000D+06 -.223517417908D-07  .113552602909D+01 -.126659870148D-06
     .985930399159D+00  .264468750000D+03 -.214146356654D+01 -.778889586735D-08
     .166078346401D-09  .100000000000D+01  .158800000000D+04  .000000000000D+00
     .240000000000D+01  .000000000000D+00 -.884756445885D-08  .350000000000D+02
     .129606000000D+06  .400000000000D+01
15 10  6 14 14  0  0.0 -.256387051195D-03  .659383658785D-11  .000000000000D+00
     .630000000000D+02  .163312500000D+03  .473591155544D-08  .272661149797D+01
     .843964517117D-05  .249090604484D-02  .691227614880D-05  .515377429771D+04
     .136800000000D+06 -.558793544769D-07  .107087217001D+01  .428408384323D-07
     .953551854211D+00  .243031250000D+03 -.167806001999D+00 -.819176979152D-08
     .215723271454D-09  .100000000000D+01  .158800000000D+04  .000000000000D+00
     .240000000000D+01  .000000000000D+00 -.977888703346D-08  .630000000000D+02
     .129606000000D+06  .400000000000D+01
